{
    "links": {
        "self": "http://www.neowsapp.com/rest/v1/neo/3401189?api_key=iIulBulltgU6a56xZRHN4H3l9WmuAYTsLGpBGhQ2"
    },
    "id": "3401189",
    "neo_reference_id": "3401189",
    "name": "(2008 BN16)",
    "designation": "2008 BN16",
    "nasa_jpl_url": "http://ssd.jpl.nasa.gov/sbdb.cgi?sstr=3401189",
    "absolute_magnitude_h": 26.0,
    "estimated_diameter": {
        "kilometers": {
            "estimated_diameter_min": 0.0167708462,
            "estimated_diameter_max": 0.0375007522
        },
        "meters": {
            "estimated_diameter_min": 16.7708462163,
            "estimated_diameter_max": 37.5007521798
        },
        "miles": {
            "estimated_diameter_min": 0.0104209175,
            "estimated_diameter_max": 0.0233018799
        },
        "feet": {
            "estimated_diameter_min": 55.0224631002,
            "estimated_diameter_max": 123.0339677816
        }
    },
    "is_potentially_hazardous_asteroid": false,
    "close_approach_data": [
        {
            "close_approach_date": "2008-01-21",
            "close_approach_date_full": "2008-Jan-21 16:22",
            "epoch_date_close_approach": 1200932520000,
            "relative_velocity": {
                "kilometers_per_second": "18.5146518773",
                "kilometers_per_hour": "66652.7467582264",
                "miles_per_hour": "41415.424784299"
            },
            "miss_distance": {
                "astronomical": "0.0119965857",
                "lunar": "4.6666718373",
                "kilometers": "1794663.667992459",
                "miles": "1115152.2929915742"
            },
            "orbiting_body": "Earth"
        }
    ],
    "orbital_data": {
        "orbit_id": "8",
        "orbit_determination_date": "2017-04-06 09:04:36",
        "first_observation_date": "2008-01-30",
        "last_observation_date": "2008-02-03",
        "data_arc_in_days": 4,
        "observations_used": 20,
        "orbit_uncertainty": "9",
        "minimum_orbit_intersection": ".0120031",
        "jupiter_tisserand_invariant": "3.293",
        "epoch_osculation": "2454496.5",
        "eccentricity": ".6874176812839718",
        "semi_major_axis": "2.214144101023476",
        "inclination": "5.516284673659894",
        "ascending_node_longitude": "308.0294807420469",
        "orbital_period": "1203.392360752853",
        "perihelion_distance": ".6921022970693339",
        "perihelion_argument": "98.39144446234718",
        "aphelion_distance": "3.736185904977619",
        "perihelion_time": "2454443.924465814458",
        "mean_anomaly": "15.72819715670631",
        "mean_motion": ".2991543005763978",
        "equinox": "J2000",
        "orbit_class": {
            "orbit_class_type": "APO",
            "orbit_class_description": "Near-Earth asteroid orbits which cross the Earth’s orbit similar to that of 1862 Apollo",
            "orbit_class_range": "a (semi-major axis) > 1.0 AU; q (perihelion) < 1.017 AU"
        }
    },
    "is_sentry_object": false
}